name,tel,street,locality,region,postcode
Sidmouth Hospital,01395 512 482,All Saints Road,Sidmouth,Devon,EX10 8EN
St Mary's Hospital,020 3312 6666,Praed Street,London,Greater London,W2 1NY
Harefield Hospital,01895 823 737,Hill End Road,Harefield,Middlesex,UB9 6JH
Ripley Hospital,01773 743456,Sandham Lane,Ripley,Derbyshire,DE5 3HE
"West Middlesex University Hospital, O Block",020 8630 3475,"Therapies Centre (O-Block), West Middlesex Hospital, Twickenham Road",Isleworth,Middlesex,TW7 6AF
Coalville Community Hospital,,"Coalville Hospital, Broom Leys Road",Coalville,Leicestershire,LE67 4DE
Newmarket Hospital,01638 558400,Exning Road,Newmarket,Suffolk,CB8 7JG
St Mary's NHS Treatment Centre,0333 200 1822,Milton Road,Portsmouth,Hampshire,PO3 6DW
South Liverpool NHS Treatment Centre GP Doctors Service,0151 295 9000,"Church Road, Garston",Liverpool,,L19 2LW
The Royal National Orthopaedic Hospital (Stanmore),020 8954 2300,Brockley Hill,Stanmore,Middlesex,HA7 4LP
Holly House Hospital,,High Road,Buckhurst Hill,Essex,IG9 5HX
Ottery St Mary Hospital,01404 816 000,Keegan Close,Ottery St Mary,Devon,EX11 1DN
Robert Jones & Agnes Hunt Orthopaedic and District Hospital,,Gobowen,Oswestry,Shropshire,SY10 7AG
Belle Vale Health Centre,0151 488 1200,"Hedgefield Road, Liverpool, Merseyside",Merseyside,Merseyside,L25 2XE
Abbey Hey Clinic,,Constable Street,,Manchester,M18 8GD
Huddersfield Royal Infirmary,01484 342000,"Acre Street, Lindley, Huddersfield",,,HD3 3EA
"National Hospital For Neurology and Neurosurgery, Queen Square",020 3456 7890,Queen Square,London,,WC1N 3BG
University Dental Hospital,0151 706 2000,Pembroke Place,Liverpool,Merseyside,L3 5PS
Eccleshill Community Hospital,01274 323200,"450 Harrogate Road, Eccleshill",Bradford,West Yorkshire,BD10 0JE
Cossham Hospital,0117 340 8400,"Lodge Road, Kingswood",Bristol,,BS15 1LF
Milford Specialist Rehabilitation Hospital,01483 782500,Tuesley Lane,Godalming,Surrey,GU7 1UF
Springfield Hospital,01245 234 000,Lawn Lane,Chelmsford,Essex,CM1 7GU
Miu St Georges Centre,,"2 St. Georges Centre, St. Georges Road",Leeds,West Yorkshire,LS10 4UZ
Reservoir Court,0121 685 7333,"220 Reservoir Road, Erdington",Birmingham,West Midlands,B23 6DJ
Musgrove Park Hospital,,Musgrove Park,Taunton,Somerset,TA1 5DA
Freeman Hospital,,"Freeman Hospital, Freeman Road, High Heaton",Newcastle Upon Tyne,Tyne And Wear,NE7 7DN
Friarage Hospital Site,01609 779911,Friarage Hospital,Northallerton,North Yorkshire,DL6 1JG
Papworth Hospital,01480 830541,"Papworth Hall, Papworth Everard",Cambridge,Cambridgeshire,CB23 3RE
Honiton Hospital,01404 540 540,Marlpits Road,Honiton,,EX14 2DE
Torbay Hospital,01803 614567,"Hengrave House, Torbay Hospital, Newton Road",Torquay,Devon,TQ2 7AA
Wantage Community Hospital,,Garston Lane,Wantage,Oxfordshire,OX12 7AS
Keresforth Centre,01226 730000,Keresforth Close,Barnsley,,S70 6RS
North Devon District Hospital,01271 322466,"Eye Department, Raleigh Park, Barnstaple",,,EX31 4JB
Birmingham Dental Hospital,0121 466 5000,St Chad's Circus,Birmingham,,B4 6NN
Sutton Cottage Hospital,,27A Birmingham Road,Sutton Coldfield,West Midlands,B72 1QH
Exmouth Hospital,,Claremont Grove,Exmouth,Devon,EX8 2JN
Longsight Medical Practice,,526-528 Stockport Road,,Manchester,M13 0RR
"Nuffield Health, Bournemouth Hospital",0800 015 5020,67 Landsdowne Road,Bournemouth,Dorset,BH1 1RW
Delce Health Centre,,1 The Delce,,Rochester,ME1 2EL
Thame Community Hospital,01844 212727,East Street,Thame,,OX9 3JT
Royal Lancaster Infirmary,01524 65944,Ashton Road,Lancaster,Lancashire,LA1 4RP
Newcastle Dental Hospital,(0191) 233 6161,Richardson Road,Newcastle Upon Tyne,Tyne and Wear,NE2 4AZ
Weybridge Community Hospital,01932 852931,"Weybridge Community Hospital, 22 Church Street",Weybridge,Surrey,KT13 8DY
Loxford Polyclinic,,"417 Ilford Lane, Town Centre",Ilford,Essex,IG1 2PF
Teddington Memorial Hospital,,Hampton Road,Teddington,Middlesex,TW11 0JL
Mount Gould Hospital,01752 268011,Mount Gould Road,Plymouth,,PL4 7QD
Cherry Knowle Hospital,0191 565 6256,Ryhope,Sunderland,Tyne and Wear,SR2 0NB
BMI The Chaucer Hospital,01227 825100,Nackington Road,Canterbury,Kent,CT4 7AR
Chalfont's & Gerrards Cross Hospital,,"Hampden Road, Chalfont St. Peter",Gerrards Cross,Buckinghamshire,SL9 9DR
Peterlee Community Hospital,0191 5863474,O'neill Drive,Peterlee,,SR8 5UQ
The North East NHS Surgery Centre,0191 445 2474,"Queen Elizabeth Hospital, Queen Elizabeth Avenue, Sheriff Hill",Gateshead,Tyne and Wear,NE9 6SX
Brighton General Hospital,01273 696011,Elm Grove,Brighton,East Sussex,BN2 3EW
Lbhealthcare,01489 569888,"Gull Coppice, Whiteley",Fareham,Hampshire,PO15 7LS
CircleReading,,11 Kendrick Road,Reading,Berkshire,RG1 5DU
Sheffield Children's Hospital,0114 2717000,Western Bank,Sheffield,South Yorkshire,S10 2TH
BMI The Clementine Churchill Hospital,020 8872 3872,Sudbury Hill,Harrow,Middlesex,HA1 3RX
University Hospital Of Hartlepool,01429 266654,Holdforth Road,Hartlepool,Cleveland,TS24 9AH
Weston Park Hospital,0114 226 5000,Whitham Road,Sheffield,South Yorkshire,S10 2SJ
Gloucestershire Royal Hospital,03004 222 222,"Trust HQ, 1 College Lawn",Cheltenham,Gloucestershire,GL53 7AG
Litchdon Medical Centre,01271 323443,Landkey Road,Barnstaple,Devon,EX32 9LL
Royal Brompton Hospital,020 7352 8121,Sydney Street,London,Greater London,SW3 6NP
Royal Sussex County Hospital,01273 696955,Eastern Road,Brighton,East Sussex,BN2 5BE
Bolton One,01204 462626,"Bolton One, Moor Lane",Bolton,,BL3 5BN
The Ipswich Hospital,01473 712 233,Heath Road,Ipswich,Suffolk,IP4 5PD
Spire Bristol Hospital,0117 980 4000,Redland Hill,Bristol,,BS6 6UT
Bedford Hospital South Wing,01234 355 122,"South Wing, Kempston Road",Bedford,Bedfordshire,MK42 9DJ
Callington Road Hospital,0117 919 5600,"Marmalade Lane, Brislington",Bristol,,BS4 5BJ
Reaside Clinic,0121 678 3000,"Birmingham Great Park, Bristol Road South, Rednal",Birmingham,West Midlands,B45 9BE
Hallam Street Hospital,0121 612 8628,"Hallam Street, Hallam Street",West Bromwich,,B71 4NH
Rosie Hospital,01223 217 617,Robinson Way,Cambridge,Cambridgeshire,CB2 0QQ
North Downs Hospital,01883 348981,46 Tupwood Lane,Caterham,Surrey,CR3 6DP
Fanshawe Clinic (Outreach),,57 Halbutt Street,,Dagenham,RM9 5AR
Tiverton and District Hospital,01884 235 400,Kennedy Way,Tiverton,Devon,EX16 6NT
King Edward Vii Hospital,01753 860441,St Leonards Road,Windsor,Berkshire,SL4 3DP
"Malton, Norton & District Hospital",01653 693041,Middlecave Road,Malton,North Yorkshire,YO17 7NG
Crowborough Birthing Centre,01892 652284,Southview Road,Crowborough,Sussex,TN6 1HB
Bognor Regis War Memorial Hospital,01243 865418,"Bognor Regis War Memorial Hospital, Shripney Road",Bognor Regis,,PO22 9PP
Farnham Hospital Outpatients Department,01483 782000,Hale Road,Farnham,Surrey,GU9 9QL
Avondale ,01482 216624,"Gladstone Street, Anlaby Road",Hull,,HU3 2RT
Blackburn Birth Centre,01254 733434,"Park Lee Road, Park Lee Road",Blackburn,Lancashire,BB2 3NX
Royal Berkshire Bracknell Clinic,01344 662 900,"Eastern Gate, Brants Bridge",Bracknell,Berkshire,RG12 9BG
Princess Alexandra Hospital,01279 444455,Hamstel Road,Harlow,Essex,CM20 1QX
Swindon Health Centre,,"Carfax Street, Swindon",,,SN1 1ED
Hythe Hospital,023 8042 3203,"Beaulieu Road, Hythe",Southampton,Hampshire,SO45 4ZB
North Manchester General Hospital,0161 795 4567,"Delaunays Road, Crumpsall",Manchester,Greater Manchester,M8 5RB
Macclesfield District General Hospital,01625 421000,Victoria Road,Macclesfield,Cheshire,SK10 3BL
Royal Shrewsbury Hospital,01743 261000,Mytton Oak Road,Shrewsbury,Shropshire,SY3 8XQ
Market Harborough & District Hospital,,58 Coventry Road,Market Harborough,Leicestershire,LE16 9DD
Coventry Nhs Healthcare & Walk In Centre,0300 200 0060,Stoney Stanton Road,Coventry,West Midlands,CV1 4FS
Ellesmere Port Hospital,01244 362986,"114 Chester Road, Whitby",Ellesmere Port,Merseyside,CH65 6SG
Sevenoaks Hospital,,Hospital Road,Sevenoaks,Kent,TN13 3PG
Morley Street Child / Dental Services,01273 698041,"Morley Street Dental Clinic, Morley St",Brighton,Sussex,BN2 9DH
Ashford Hospital,01784 884488,London Road,Ashford,Middlesex,TW15 3AA
St James's Hospital,0113 243 3144,Beckett Street,Leeds,West Yorkshire,LS9 7TF
Whitby Hospital,01609536115,"HAS Directorate Office, Whitby Hospital",Whitby,North Yorkshire,YO22 4ER
St Peter's Hospital,01932 872000,"St Peters Hospital, Guildford Road",Chertsey,Surrey,KT16 0PZ
Alexandra Hospital,01527 503 030,Woodrow Drive,Redditch,Worcestershire,B98 7UB
The Whalton Unit,0344 811 8111,South Road,Morpeth,Northumberland,NE61 2BT
Salisbury District Hospital,01722 336262,Odstock Road,Salisbury,Wiltshire,SP2 8BJ
Guest Hospital,01384 456111,Tipton Rd,Dudley,West Midlands,DY1 4SE
Stoke Mandeville Hospital,01296 315000,"Amersham Hospital, Whielden Street",Amersham,Buckinghamshire,HP7 0JD
BMI The Princess Margaret Hospital,01753 743434,Osborne Road,Windsor,Berkshire,SL4 3SJ
Dean Street,,56 Dean Street,London,Greater London,W1D 6AQ
Priory Clinic Nottingham,0115 969 3388,Ransom Road,Nottingham,Nottinghamshire,NG3 5GS
Cannock Chase Hospital,01543 572757,Brunswick Road,Cannock,Staffordshire,WS11 5XY
Fleet Community Hospital,,Church Road,Fleet,Hampshire,GU51 4LZ
Skipton General Hospital,01756 792233,Keighley Road,Skipton,North Yorkshire,BD23 2RJ
Leatherhead Hospital,,Poplar Road,Leatherhead,Surrey,KT22 8SD
Royal South Hants Hospital,,Brintons Terrace,Southampton,Hampshire,SO14 0YG
St Oswald's,01452875000,Gavel Way,Gloucester,Gloucestershire,GL1 2UF
London Road Community Hospital,01332 265500,London Road,Derby,Derbyshire,DE1 2QY
Spire Fylde Coast Hospital,01253 394 188,St. Walburgas Road,Blackpool,Lancashire,FY3 8BP
Caterham Dene Hospital,01883 837500,Church Road,Caterham,Surrey,CR3 5RA
Royal Preston Hospital,01772 716565,"Chief Executive's Office, Royal Preston Hospital, Sharoe Green Lane, Fulwood",Preston,Lancashire,PR2 9HT
Chipping Norton War Memorial Community Hospital Out-Patient and Maternity Unit,01608 648200,"Russell Way, London Road",Chipping Norton,Oxfordshire,OX7 5FA
Chippenham Community Hospital,01249 447100,Rowden Hill,Chippenham,Wiltshire,SN15 2AJ
Devizes NHS Treatment Centre,0117 906 1801,Marshall Road,Devizes,Wiltshire,SN10 3UF
Accrington Victoria Hospital,,Hayward Road,,,BB5 6AS
Grantham and District Hospital,01476 565232,Manthorpe Road,Grantham,Lincolnshire,NG31 8DG
BMI Bath Clinic,01225 835555,"The Bath Clinic, Claverton Down Road, Combe Down",Bath,Avon,BA2 7BR
St Charles Centre for Health and Wellbeing,,Exmoor Street,,,W10 6DZ
The Royal Liverpool University Hospital,0151 706 2000,Prescot Street,Liverpool,Merseyside,L7 8XP
St Barnabas Hospital,,Higher Port View,Saltash,Cornwall,PL12 4BU
University Hospital Lewisham,020 8333 3000,Lewisham High Street,London,,SE13 6LH
Royal National Hospital For Rheumatic Diseases NHS FT,01225 465941,"RNHRD, Upper Borough Walls",Bath,,BA1 1RL
Princess Anne Hospital,023 8077 7222,Coxford Road,Southampton,Hampshire,SO16 5YA
Leicester Royal Infirmary,0300 303 1573,"Leicester Royal Infirmary, Infirmary Square",Leicester,Leicestershire,LE1 5WW
Pendle Community Hospital,01282 425071,"Leeds Road, Leeds Rd",Nelson,Lancashire,BB9 9SZ
North East London NHS Treatment Centre,0333 200 4069,"c/o Care UK, King George Hospital, Barley Lane",Ilford,Essex,IG3 8YB
Brixham Community Hospital,01803 881399,Greenswood Road,Brixham,Devon,TQ5 9HW
BMI Sarum Road Hospital,01962 844555,Sarum Road,Winchester,Hampshire,SO22 5HA
Pontefract Hospital,* 0844 8118110,Friarwood Lane,Pontefract,West Yorkshire,WF8 1PL
Chester Le Street Hospital,0191 333 2333,Front Street,Chester Le Street,County Durham,DH3 3AT
Bridgnorth Hospital,01746 762641,Northgate,Bridgnorth,Shropshire,WV16 4EU
"Royal National Throat, Nose and Ear Hospital",020 3456 7890,330 Grays Inn Road,London,,WC1X 8DA
William Harvey Hospital (Ashford),01233 633331,"Kennington Road, Willesborough",Ashford,Kent,TN24 0LZ
Royal Berkshire Hospital,0118 322 5111,London Road,Reading,Berkshire,RG1 5AN
St George's,01702331512,Park Terrace,Westcliff On Sea,Essex,SS0 7PH
"Foxglove Ward, King George Hospital",,Barley Lane,,,IG3 8YB
Oakwood Surgery,,"Church Street, Mansfield Woodhouse",,Mansfield,NG19 8BL
The Heart Hospital,020 3456 7898,"The Heart Hospital, 16-18 Westmoreland Street",London,,W1G 8PH
Burnham On Sea War Memorial Hospital,,Love Lane,Burnham-On-Sea,Somerset,TA8 1ED
Wonford House Hospital,01392 208866,Dryden Road,Exeter,Devon,EX2 5AF
The Royal London Hospital For Integrated Medicine,020 3456 7890,60 Great Ormond Street,London,,WC1N 3HR
Spire Elland Hospital,01422 324083 ,Elland Lane,Elland,West Yorkshire,HX5 9EB
Purley War Memorial Hospital,,"Purley War Memorial Hospital, 856 Brighton Road",Purley,Surrey,CR8 2YL
The Berkshire Independent Hospital,0118 902 8000,"Swallowscroft, Wensley Road",Reading,Berkshire,RG1 6UZ
Hospital Of St Cross,01788 572831,Barby Rd,Rugby,Warwickshire,CV22 5PX
Loughborough Hospital,,EPINAL WAY,LOUGHBOROUGH,,LE11 5JY
Braintree Community Hospital,,"Braintree Community Hospital, Chadwick Drive",Braintree,Essex,CM7 2AL
Liskeard Community Hospital,,Clemo Road,Liskeard,Cornwall,PL14 3XD
Molesey Hospital,,High Street,West Molesey,Surrey,KT8 2LU
Moseley Hall Hospital,0121 466 6000,Alcester Road,Birmingham,,B13 8JL
Royal Alexandra Children's Hospital,01273 696955,Eastern Road,Brighton,East Sussex,BN2 5BE
Newton Abbot Community Hospital,01626 324500,"West Golds Road, Jetty Marsh",Newton Abbot,Devon,TQ12 2SL
BMI The Somerfield Hospital,01622 208000,63-77 London Road,Maidstone,Kent,ME16 0DU
"Nuffield Health, Ipswich Hospital",0800 015 5020,Foxhall Road,Ipswich,Suffolk,IP4 5SW
University Hospital Of North Tees,,"University Hospital Of North Tees, Hardwick Road",Stockton-On-Tees,Cleveland,TS19 8PE
Ludlow Community Hospital,,Gravel Hill,Ludlow,Shropshire,SY8 1QX
St Bartholomew's Hospital,,New Road,Rochester,Kent,ME1 1DS
Barlborough NHS Treatment Centre,0333 200 4066,"c/o Care UK, 2 Lindrick Way, Barlborough",Chesterfield,Derbyshire,S43 4XE
Stroud General Hospital,0300 421 8080,Trinity Road,Stroud,Gloucestershire,GL5 2HY
"Knowsley Nhs Walk-In Centre, Halewood",0151 244 3532,"The Halewood Centre, Roseheath Drive",Liverpool,Merseyside,L26 9UH
Vale Community Hospital,0300 421 8494,Lister Road,Dursley,,GL11 4BA
Redcar Primary Care Hospital,,West Dyke Road,Redcar,Cleveland,TS10 4NW
BMI The Lincoln Hospital,01522 578 000,Nettleham Road,Lincoln,Lincolnshire,LN2 1QU
Heanor Memorial Hospital,,Ilkeston Road,,,DE75 7EA
St Helens Hospital,01744 26633,Marshalls Cross Road,St. Helens,Merseyside,WA9 3DA
Milton Keynes Urgent Care Services Cic,,"Milton Keynes General Hospital, Standing Way, Eaglestone",Milton Keynes,Buckinghamshire,MK6 5NG
Harlow - Derwent Centre,,"Princess Alexandra Hospital, Hamstel Road",,Harlow,CM20 1QX
The Fountains,01708554456,12 Theydon Gardens,Rainham,Essex,RM13 7TU
Spire Leeds Hospital,0113 269 3939,Jackson Avenue,Leeds,West Yorkshire,LS8 1NT
John Radcliffe Hospital,01865 741166,"Headley Way, Headington",Oxford,Oxfordshire,OX3 9DU
St George's At St John's Therapy Centre,020 8812 5385,162 St. John's Hill,London,Greater London,SW11 1SW
Montagu Hospital,01709 585171,Adwick Road,Mexborough,,S64 0AZ
North Middlesex University Hospital,020 8887 2000,Sterling Way,London,,N18 1QX
Royal Hallamshire Hospital,0114 271 1900,Glossop Road,Sheffield,South Yorkshire,S10 2JF
Chorley and South Ribble Hospital,01257 261222,"Chorley and South Ribble Hospital, Preston Road",Chorley,Lancashire,PR7 1PP
Fulwood Hall Hospital,01772 704111,"Midgery Lane, Fulwood",Preston,Lancashire,PR2 9SZ
Maudsley Hospital,020 3228 6000,Denmark Hill,London,,SE5 8AZ
Heatherwood Hospital,01344 623 333,London Road,Ascot,Berkshire,SL5 8AA
Bishop Auckland Hospital,01388 455000,Cockton Hill Road,Bishop Auckland,County Durham,DL14 6AD
Queen's Hospital,01708 435000,"Queen's Hospital, Rom Valley Way",Romford,Essex,RM7 0AG
"Nuffield Health, Chichester Hospital",01243 530 600,78 Broyle Road,Chichester,,PO19 6WB
Gosport War Memorial Hospital,023 9252 4611 ,"Bury Road, Gosport",Gosport,Hampshire,PO12 3PW
The Westbourne Centre,0121 456 0880,"53 Church Road, Edgbaston",Birmingham,,B15 3SJ
BMI Thornbury Hospital,0114 2661133,312 Fulwood Road,Sheffield,,S10 3BR
Leicester General Hospital,0300 303 1573,Gwendolen Road,Leicester,Leicestershire,LE5 4PW
Stratford Hospital,01789  205831,Arden Street,Stratford-upon-Avon,Warwickshire,CV37 6NX
Maghull Health Centre,0151 520 2488,"Westway, Maghull, Liverpool",Merseyside,,L31 0DJ
Grays Hall,,Orsett Road,,Grays,RM17 5TT
"Cross Lane Hospital, Scarborough",01723 384600,Cross Lane,Scarborough,North Yorkshire,YO12 6DN
K McGuiness Opticians - Hearingcare Clinc,,"Unit B1, Greenwell Road, Newton Aycliffe",,,DL5 4DH
St George's Hospital (London),0208 672 1255,Blackshaw Road,London,Greater London,SW17 0QT
Cumberland Infirmary,01228 523444,Newtown Road,Carlisle,Cumbria,CA2 7HY
Royal Victoria Hospital (Folkestone),01303 850202,"Royal Victoria Hospital, Radnor Park Avenue",Folkestone,Kent,CT19 5BN
Rotherham Hospital,01709 82 0000,Moorgate Road,Rotherham,,S60 2UD
Tavistock Community Hospital,01822 612233,Spring Hill,Tavistock,Devon,PL19 8LD
Doddington Hospital,01354 644299,"Benwick Road, Doddington",March,Cambridgeshire,PE15 0UG
Chapel Allerton Hospital,(0113) 2623404,Chapeltown Road,Leeds,West Yorkshire,LS7 4SA
BMI The Priory Hospital,0121 4402323,"Priory Road, Edgbaston",Birmingham,West Midlands,B5 7UG
Nottingham Woodthorpe Hospital,0115 920 9209,"748 Mansfield Road, Woodthorpe",Nottingham,Nottinghamshire,NG5 3FZ
North Cotswold Hospital,,Stow Road,Moreton-In-Marsh,Gloucestershire,GL56 0DS
Hove Polyclinic,,Nevill Avenue,,Hove,BN3 7HY
Orthopaedics and Spine Specialist Hospital,01733 333156,"1 Stirling Way, Bretton",Peterborough,Cambridgeshire,PE3 8YA
Melton Mowbray Hospital,,DEE CLOSE,MELTON MOWBRAY,,LE13 1SJ
Birmingham Children,0121 333 9999,Steelhouse Lane,Birmingham,,B4 6NH
George Eliot Hospital - Acute Services,02476 351 351,College Street,Nuneaton,Warwickshire,CV10 7DJ
Westwood Park Dtc,,Swift Drive,Bradford,West Yorkshire,BD6 3RW
Cirencester Hospital,01285 655711,Tetbury Road,Cirencester,,GL7 1UY
Zachary Merton Community Hospital ,01903 858100,"Zachary Merton Community Hospital, Glenville Road, Rustington",Littlehampton,Sussex,BN16 2EB
"Nuffield Health, Guildford Hospital",0800 015 5020,Stirling Road,Guildford,Surrey,GU2 7RF
Thomas Linacre Outpatient Centre,01942 244000,Parsons Walk,Wigan,Lancashire,WN1 1RU
The Royal South Hants Hospital,,Graham Road,Southampton,Hampshire,SO14 0YG
Livingstone Hospital,01322 622222,"Livingstone Community Hospital, East Hill",Dartford,Kent,DA1 1SA
Litherland Town Hall Walk In Centre,,"Litherland Town Hall Health Centre, Off Hatton Hill Road/Field Lane",Liverpool,Merseyside,L21 9JN
Norfolk and Norwich University Hospital,01603 286 286,Colney Lane,Norwich,Norfolk,NR4 7UY
Grindon Lane Primary Care Centre,0191 5252300,"Grindon Lane Primary Care Centre, Grindon Lane, Grindon",Sunderland,Tyne and Wear,SR3 4EN
St Austell Community Hospital,,Porthpean Road,St. Austell,Cornwall,PL26 6AD
Peterborough City Hospital,01733 678000,"Edith Cavell Campus, Bretton Gate, Bretton",Peterborough,Cambridgeshire,PE3 9GZ
BMI Mount Alvernia Hospital,01483 570122,46 Harvey Road,Guildford,Surrey,GU1 3LX
Princess Royal Hospital,01444 441881,Lewes Road,Haywards Heath,West Sussex,RH16 4EX
Oaks Hospital,0208 655 5500,Poppy Lane,Croydon,Surrey,CR9 8AB
Alfred Bean Hospital,,Bridlington Road,Driffield,North Humberside,YO25 5JR
Alnwick Infirmary,0344 811 8111,"Infirmary Drive, South Road",Alnwick,Northumberland,NE66 2NS
St Luke's Hospital,01865228800,"4 Latimer Road, Headington",Oxford,Oxfordshire,OX3 7PF
bpas (Richmond),03457304030,"Rosslyn Clinic, 15 Rosslyn Road",Twickenham,Middlesex,TW1 2AR
New Richardson Hospital,,Victoria Road,Barnard Castle,County Durham,DL12 8HT
Mount Stuart Hospital,01803 313881 ,St. Vincents Road,Torquay,Devon,TQ1 4UP
Stamford and Rutland Hospital,01780 764151,Ryhall Road,Stamford,Lincolnshire,PE9 1UA
Swaffham Community Hospital,01760 721363,Sporle Road,Swaffham,Norfolk,PE37 7HL
South Petherton Community Hospital,,Bernard Way,,,TA13 5EF
Brookfields Hospital,01223 723170,351 Mill Road,Cambridge,Cambridgeshire,CB1 3DF
Cheshunt Community Hospital,,"King Arthur Court, Cheshunt",Waltham Cross,Hertfordshire,EN8 8XN
Johnson Community Hospital,,"The Johnson Community Hospital, Spalding Road, Pinchbeck",Spalding,Lincolnshire,PE11 3DT
Bowmere Hospital,01244397300,"The Countess Of Chester Health Park, Liverpool Road",Chester,Cheshire,CH2 1BQ
Dartmouth Community Hospital,01803 832255,"South Embankment, Mansion House Street",Dartmouth,Devon,TQ6 9BD
CircleBath,01761 422 324,"Foxcote Avenue, Peasedown St John",Bath,,BA2 8SF
Bristol Haematology and Oncology Centre,0117 923 0000,Horfield Road,Bristol,,BS2 8ED
Shipley Hospital,01274 773390,98 Kirkgate,Shipley,West Yorkshire,BD18 3LT
Lever Chambers Centre for Health,01204 462600,27 Ashburner Street,Bolton,,BL1 1SQ
South Tyneside District Hospital,0191 404 1000,Harton Lane,South Shields,Tyne and Wear,NE34 0PL
Hammersmith Hospital,020 3313 1000,Du Cane Road,London,Greater London,W12 0HS
Palmer Community Hospital,0191 451 6000,Wear Street,Jarrow,Tyne and Wear,NE32 3UX
Broadgreen Hospital,0151 282 6000,Thomas Drive,Liverpool,Merseyside,L14 3LB
Spire Wellesley Hospital,01702 462 944 ,Eastern Avenue,Southend-on-Sea,Essex,SS2 4XH
Woking Community Hospital,,"Woking Community Hospital, Heathside Road",Woking,Surrey,GU22 7HS
Rochford Hospital,01268 739111,"Rochford Hospital, Union Lane",Rochford,Essex,SS4 1RB
Croydon University Hospital,020 8401 3000,530 London Road,Thornton Heath,Surrey,CR7 7YE
Bristol Royal Infirmary,0117 923 0000,Marlborough Street,Bristol,Avon,BS1 3NU
Russells Hall Hospital,01384 456111,Pensnett Road,Dudley,West Midlands,DY1 2HQ
Teignmouth Community Hospital,01626 772161,Mill Lane,Teignmouth,Devon,TQ14 9BQ
Horton NHS Treatment Centre,01295 755 000,Oxford Road,Banbury,Oxfordshire,OX16 9FG
Leighton Hospital,01270 255141,"Leighton Hospital, Middlewich Road",Crewe,Cheshire,CW1 4QJ
Wilmslow Road Medical Centre,0161 224 2452,"156 Wilmslow Road, Rusholme, Manchester",,,M14 5LQ
Ridgewood Centre,03005 555222,"Old Bisley Road, Frimley",Camberley,Surrey,GU16 9QE
Frome Community Hospital ,,Enos Way,,,BA11 2FH
Royal Liverpool University Dental Hospital,0151 706 2000,Pembroke Place,Liverpool,Merseyside,L3 5PS
Hexham General Hospital,0344 811 8111,Corbridge Road,Hexham,Northumberland,NE46 1QJ
Sunderland Royal Hospital,0191 565 6256,Kayll Road,Sunderland,,SR4 7TP
Fowey Hospital,,Park Road,Fowey,Cornwall,PL23 1EE
Juniper Centre,0121 301 5700,"Moseley Hall Hospital site, Alcester Road, Moseley",Birmingham,,B13 8JL
West Cumberland Hospital,01946 693181,"Homewood, Hensingham",Whitehaven,,CA28 8JG
Pershore Hospital,,"Queen Elizabeth House, Queen Elizabeth Drive",Pershore,Worcestershire,WR10 1PS
Newham General Hospital,020 7476 4000,"Glen Road, Plaistow",London,,E13 8SL
Sandalwood Court,01536424040,"Butland Road, Oakley Vale",Corby,Northamptonshire,NN18 8QA
BMI The Alexandra Hospital,0161 428 3656,"The Alexandra Hospital, Mill Lane",Cheadle,Cheshire,SK8 2PX
Paulton Memorial Hospital,,"Salisbury Road, Paulton",Bristol,Avon,BS39 7SB
BMI The South Cheshire Private Hospital,01270 500411,Leighton,Crewe,Cheshire,CW1 4QP
Mount Vernon Cancer Centre,,Rickmansworth Road,,,HA6 2RN
Hawkhurst Hospital,01580 753345,"Hawkhurst Community Hospital, High Street, Hawkhurst",Cranbrook,Kent,TN18 4PU
St Bartholomews Hospital,01634 810900,New Road,Rochester,Kent,ME1 1DS
Queen Elizabeth Hospital Birmingham,0121 627 2000,"Mindelsohn Way, Edgbaston",Birmingham,,B15 2WB
Holsworthy Hospital,01409 253 424,Dobles Lane,Holsworthy,Devon,EX22 6JQ
Princess of Wales Community Hospital,01527 488000,"Princess of Wales Community Hospital, Stourbridge Road",Bromsgrove,Worcestershire,B61 0BB
Lewes Victoria Hospital,01273 474153,Nevill Road,Lewes,East Sussex,BN7 1PE
Swanage Community Hospital,01929 422282,Queens Road,Swanage,Dorset,BH19 2ES
Didcot Health Centre,,Britwell Road,Didcot,Oxfordshire,OX11 7JH
"West Lane Hospital, Middlesbrough",01642 352000,Acklam Road,Middlesbrough,,TS5 4EE
Dorset County Hospital,01305 251150,"Dorset County Hospital, Williams Avenue",Dorchester,Dorset,DT1 2JY
Fleetwood Hospital,01253 306053,Pharos Street,Fleetwood,Lancashire,FY7 6BE
Milton Keynes Hospital,01908 660033,"Standing Way, Eaglestone",Milton Keynes,Buckinghamshire,MK6 5LD
Morris House Group Practice,,"239 Lordship Lane, Tottenham",London,Greater London,N17 6AA
Newark Hospital,01636 681681,Boundary Road,Newark,Nottinghamshire,NG24 4DE
Wrightington Hospital,01942 244000,"Hall Lane, Appley Bridge",Wigan,Lancashire,WN6 9EP
Basildon University Hospital,01268 524900,Nethermayne,Basildon,Essex,SS16 5NL
Clifton Hospital,01253 306204,Pershore Road,Lytham St. Annes,Lancashire,FY8 1PB
The York Hospital,01904 631 313,"The York Hospital, Wigginton Road",York,North Yorkshire,YO31 8HE
Pleck Health Centre,,16 Oxford Street,Walsall,West Midlands,WS2 9HY
Longreach House,01209 881900,"Barncoose Terrace, Barncoose",Redruth,Cornwall,TR15 3ER
BMI Shirley Oaks Hospital,0208 655 5500,Poppy Lane,Croydon,Surrey,CR9 8AB
West Suffolk Hospital,,"West Suffolk Hospital, Hardwick Lane",Bury St. Edmunds,Suffolk,IP33 2QZ
Victoria Infirmary (Northwich),01606 564000,"Winnington Hill, Winnington Hill",Northwich,Cheshire,CW8 1AW
BMI The Beaumont Hospital,01204 404404,"Chorley New Road, Lostock",Bolton,Lancashire,BL6 4LA
Spire Roding Hospital,020 8709 7878,Roding Lane South,Ilford,Essex,IG4 5PZ
Western Eye Hospital,020 7724 6530,"The Western Eye Hospital, Marylebone Road, London",,,NW1 5QH
Scunthorpe General Hospital,01724 282282,Cliff Gardens,Scunthorpe,,DN15 7BH
bpas (Birmingham South),03457304030,"162 Station Road, Kings Norton",Birmingham,West Midlands,B30 1DB
Spire Manchester Hospital,0161 226 0112,Russell Road,Manchester,Greater Manchester,M16 8AJ
Cygnet Hospital Derby,01332 365434,"City Gate, London Road",Derby,Derbyshire,DE24 8WZ
The Royal Marsden Hospital (London),020 7352 8171,Fulham Road,London,Greater London,SW3 6JJ
Bolsover Hospital,,Welbeck Road,,,S44 6DH
Leominster Community Hospital,01568 614211,"Leominster Community Hospital, Wye Valley NHS Trust, South Street",Leominster,,HR6 8JH
Lordswood Community and Healthy Living Centre,,Sultan Road,,Chatham,ME5 8TJ
Spire Hull and East Riding Hospital,01482 659471 ,"Lowfield Road, Anlaby",Hull,East Yorkshire,HU10 7AZ
Birmingham Nhs Walk-In Centre,0121 255 4500,"Lower Ground Floor, Boots The Chemists Ltd, 66 High Street",Birmingham,West Midlands,B4 7TA
Royal Eye Infirmary,* 0845 155 8155,"Derriford Hospital, Derriford Road",Plymouth,Devon,PL6 8DH
Spire Leicester Hospital,0116 265 3685,Gartree Road,Leicester,Leicestershire,LE2 2FF
Bromyard Community Hospital,01885 485700,"Bromyard Community Hospital, Wye Valley NHS Trust, Hillside Road",Bromyard,,HR7 4QN
Clay Cross Hospital,01246 252900,Market Street,Chesterfield,Derbyshire,S45 9NZ
Royal Hampshire County Hospital,01962863535,Romsey Road,Winchester,Hampshire,SO22 5DG
Dorothy Pattison Hospital,01922 607000,Alumwell Close,Walsall,West Midlands,WS2 9XH
Skegness and District General Hospital,01754 762 401,Dorothy Avenue,Skegness,Lincolnshire,PE25 2BS
BMI Three Shires Hospital,01604 620311,"The Avenue, Cliftonville",Northampton,Northamptonshire,NN1 5DR
Nightingale House/Court/Florence House,01202 584301,"Alumhurst Road, 49 Alumhurst Road",Bournemouth,Dorset,BH4 8EW
Christchurch Hospital,01202 481018,"Avon Dental Practice, Forest Dene, Christchurch Hospital, Fairmile Road",CHRISTCHURCH,Dorset,BH23 2JX
Whitworth Hospital,01629 580211,"330 Bakewell Road, Darley Dale",Matlock,Derbyshire,DE4 2JD
Aspen Lodge,02380421154,222 Weston Lane,Southampton,Hampshire,SO19 9HL
Potters Bar Community Hospital,,"Barnet Road,Potters Bar, Hertfordshire",,,EN6 2RY
Liverpool Heart and Chest Hospital,0151 600 1616,Thomas Drive,Liverpool,,L14 3PE
"Nuffield Health, Brighton Hospital",01273 624 488,"Warren Road, Woodingdean",Brighton,,BN2 6DX
Thurrock Hospital,0300 123 0808,"Thurrock Hospital, Long Lane",Grays,Essex,RM16 2PX
East Surrey Hospital,,Canada Avenue,Redhill,Surrey,RH1 5RH
Southampton General Hospital,023 8077 7222,Tremona Road,Southampton,Hampshire,SO16 6YD
BMI The Manor Hospital,01234 364252,Church End,Biddenham,Bedfordshire,MK40 4AW
Princess Of Wales Hospital,01472 874111,Scartho Road,Grimsby,,DN33 2BA
Tile Hill Health Centre,,Jardine Crescent,,Coventry,CV4 9PN
BMI The Duchy Hospital,01423 567 136,Queens Road,Harrogate,North Yorkshire,HG2 0HF
The Mount,01752665222,"7 Lipson Terrace, Lipson",Plymouth,Devon,PL4 7PR
Sittingbourne Memorial Hospital,,Bell Road,Sittingbourne,Kent,ME10 4XX
Greater Manchester NHS CATS - Bolton,0333 200 4042,111 Piccadilly,Manchester,,M1 2HY
BMI The Park Hospital,0115 9662000,"Sherwood Lodge Drive, Burntstump Country Park",Arnold,Nottinghamshire,NG5 8RX
Kendray Hospital,01226 730000,Doncaster Road,Barnsley,,S70 3RD
Stepping Hill Hospital,0161 483 1010,"Poplar Grove, Hazel Grove",Stockport,Cheshire,SK2 7JE
Weston General Hospital,01934 636363,"Grange Road, Uphill",Weston-Super-Mare,,BS23 4TQ
Arrowe Park Hospital,0151 678 5111,"Arrowe Park Road, Upton",Wirral,Merseyside,CH49 5PE
Js Medical Practice,0208 808 7968,"107 Philip Lane, London, London",,,N15 4JR
Tees Valley Treatment Centre,01642 737 855,"One Life, Linthorpe Road",Middlesbrough,,TS1 3QY
Walton Hospital,,Whitecotes Lane,,,S40 3HW
Countess Of Chester Hospital,01244 365 000,The Countess Of Chester Health Park,Chester,Cheshire,CH2 1UL
Sussex Community Dermatology Service (Crawley Hospital),01273 764253,"Outpatients '1' Department, West Green Drive",Crawley,West Sussex,RH11 7DH
"Diana, Princess Of Wales Hospital",01472 874111,Scartho Road,Grimsby,,DN33 2BA
Malvern Community Hospital,01684 612600,"Malvern Community Hospital, 185 Worcester Road",Malvern,Worcestershire,WR14 1EX
Emersons Green NHS Treatment Centre,0117 906 1801,"The Brooms, Emersons Green",Bristol,Avon,BS16 7FH
Nottingham University Hospitals NHS Trust - City Campus,0115 969 1169,"Nottingham City Hospital, Hucknall Road",Nottingham,Nottinghamshire,NG5 1PB
Finchley Memorial Hospital,,Granville Road,,,N12 0JE
Rothbury Community Hospital,01669 620 555,"Whitton Bank Road, Rothbury",Morpeth,Northumberland,NE65 7RW
Violet Melchett Health Clinic,,30 Flood Walk,,,SW3 5RR
Worthing Hospital,01903 205111,"Worthing Hospital, Lyndhurst Road",Worthing,West Sussex,BN11 2DH
Homerton University Hospital,020 8510 5555,Homerton Row,London,Greater London,E9 6SR
King's College Hospital (Denmark Hill),020 3299 9000,Denmark Hill,London,,SE5 9RS
Camborne Redruth Community Hospital,01209 318000,"Barncoose Terrace, Barncoose",Redruth,Cornwall,TR15 3ER
The Queen Elizabeth Hospital,01553 613 613,Gayton Road,King's Lynn,Norfolk,PE30 4ET
Cromer and District Hospital,01263 513571,"Mill Road, Mill Road",Cromer,Norfolk,NR27 0BQ
Bridlington & District Hospital,01262 606666,Bessingby Road,Bridlington,,YO16 4QP
Winfield Hospital,01452 306009,"Tewkesbury Road, Longford",Gloucester,Gloucestershire,GL2 9WH
Royal Albert Edward Infirmary,01942 244000,Wigan Lane,Wigan,Lancashire,WN1 2NN
Ashtead Hospital,01372 221400,The Warren,Ashtead,Surrey,KT21 2SB
Tyneside Surgical Services At The North East NHS Surgery Centre,,Queen Elizabeth Hospital,Gateshead,Tyne and Wear,NE9 6SX
"Nuffield Health, The Manor Hospital, Oxford",0800 015 5020,"Beech Road, Headington",Oxford,Oxfordshire,OX3 7RP
Helston Community Hospital,01326 430200,Meneage Road,Helston,Cornwall,TR13 8DR
Henley (Townlands) Community Hospital,,York Road,Henley-On-Thames,Oxfordshire,RG9 2EB
BMI Southend Private Hospital,01702 608908,15-17 Fairfax Drive,Westcliff on Sea,Essex,SS0 9AG
Finchley Walk-In Centre,,"Finchley Memorial Hospital, Granville Road",London,Greater London,N12 0JE
Whiston Hospital,0151 426 1600,"Whiston Hospital, Warrington Road",Prescot,Merseyside,L35 5DR
Bassetlaw Hospital,01909 500990,"Kilton Hill, Blyth Road",Worksop,Nottinghamshire,S81 0BD
Bideford Hospital,01271 322 577,Abbotsham Road,Bideford,Devon,EX39 3AG
Oaklands Hospital,0161 7877700,19 Lancaster Road,Salford,Greater Manchester,M6 8AQ
Farnham Road Hospital,03005 555222,Farnham Road,Guildford,Surrey,GU2 7LX
St Ann's Hospital,01202 708881,"69 Haven Road, Canford Cliffs",Poole,Dorset,BH13 7LN
St Mary's Health Campus,02392 680000,"West Wing, Milton Road",Portsmouth,Hampshire,PO3 6AD
St Mary's Hospital (HQ),020 3312 6666,Praed Street,London,Greater London,W2 1NY
Colchester Nhs Walk-In Centre,01206 314015,"North Colchester Healthcare Centre, Colchester Primary Care Centre, Turner Road",Colchester,Essex,CO4 5JR
Cramlington Med Group - EYELID Clinic,,"The Health Centre, Forum way, Cramligton",,,NE23 6QN
Newbridges,01482 335075,"Birkdale Way, Newbridge Road",Hull,,HU9 2BH
Gorton Medical Centre,0161 223 1113,"46 Wellington Street, Gorton, Manchester",,,M18 8LJ
Woodland Hospital,01536 414515,"Woodland Hospital, Rothwell Road",Kettering,Northamptonshire,NN16 8XF
Darlington Memorial Hospital,01325 380100,Hollyhurst Road,Darlington,County Durham,DL3 6HX
Wilson Hospital ,,"Cranmer Road, Mitcham",,,CR4 4TP
"Nuffield Health, Leeds Hospital",01133 506 553,2 Leighton Street,Leeds,West Yorkshire,LS1 3EB
Euxton Hall Hospital,01257 276261,"Wigan Road, Euxton",Chorley,Lancashire,PR7 6DY
"Sandwell Park Hospital, Hartlepool",01429 285601,Lancaster Road,Hartlepool,,TS24 8LN
Reading Walk - In Health Centre,0118 902 8300,"1St Floor, 103 Broad Street Mall",Reading,Berkshire,RG1 7QA
Airedale General Hospital,01535 652511,"Skipton Road, Steeton",Keighley,West Yorkshire,BD20 6TD
Spire Hartswood Hospital,,"Eagle Way, Great Warley",Brentwood,Essex,CM13 3LE
"Roseberry Park, Middlesbrough",01642 837300,Marton Road,Middlesbrough,,TS4 3AF
Merritt Medical Centre,,Merritt Gardens,Chessington,Surrey,KT9 2GY
Lydney & District Hospital site,0300 421 8722,Grove Road,Lydney,Gloucestershire,GL15 5JE
Victoria Health Centre,,5 Suffrage Street,Smethwick,West Midlands,B66 3PZ
East Riding Community Hospital,01482 886600,Swinemoor Lane,Beverley,East Yorkshire,HU17 0FA
Princess Royal University Hospital,,Farnborough Common,Orpington,Kent,BR6 8ND
Zinnia Centre,0121 301 5300,100 Showell Green Lane,Birmingham,West Midlands,B11 4HL
West Cornwall Hospital (Penzance),01736 874000,St Clare Street,Penzance,Cornwall,TR18 2PF
"Auckland Park Hospital, Bishop Auckland",01388 645300,Westfield Road,Bishop Auckland,Durham,DL14 6AE
Priory Hospital Southampton,023 8084 0044,"Hythe Road, Marchwood",Southampton,Hampshire,SO40 4WU
BMI The Meriden Hospital,024 7664 7000,"University Hospital Site, Clifford Bridge Road",Coventry,West Midlands,CV2 2LQ
Newquay Hospital,,St. Thomas Road,Newquay,Cornwall,TR7 1RQ
Spire Bushey Hospital,020 8901 5572,"Heathbourne Road, Bushey Heath",Bushey,Hertfordshire,WD23 1RD
Solihull Hospital,0121 424 2000,Lode Lane,Solihull,West Midlands,B91 2JL
King Edward Vii,01753 860441,St Leonards Road,Windsor,Berkshire,SL4 3DP
Lister Hospital,,Chelsea Bridge Road,London,Greater London,SW1W 8RH
Walton Community Hospital,,Rodney Road,Walton-On-Thames,Surrey,KT12 3LB
Pilgrim Hospital,01205 364801,Sibsey Road,Boston,Lincolnshire,PE21 9QS
Devonshire Centre for Neuro-Rehabilitation,0161 483 1010,Cherry Tree Lane,Stockport,Cheshire,SK2 7PZ
Green Elms Medical Centre,,32 Crossways,"Jaywick, Clacton on Sea",,CO15 2NB
"The County Hospital, Wye Valley NHS Trust",01432 355 444,Stonebow Road,Hereford,Herefordshire,HR1 2BN
Chase Farm Hospital,* 0845 111 4000,"Chase Farm Hospital, The Ridgeway",Enfield,Middlesex,EN2 8JL
Good Hope Hospital,0121 424 2000,Rectory Road,Sutton Coldfield,West Midlands,B75 7RR
BMI The Chiltern Hospital,01494 890890,London Road,Great Missenden,Buckinghamshire,HP16 0EN
Priory Hospital Cheadle Royal,0161 428 9511,100 Wilmslow Road,Cheadle,Cheshire,SK8 3DG
BMI The Winterbourne Hospital,01305 263252,Herringston Road,Dorchester,Dorset,DT1 2DR
Moss Side Health Centre,,Monton Street,,Manchester,M14 4GP
Royal Oldham Hospital,0161 624 0420,Rochdale Road,Oldham,Lancashire,OL1 2JH
The Essex Cardiothoracic Centre,* 0845 155 3111,"Basildon University Hospital, Nethermayne",Basildon,Essex,SS16 5NL
Pinderfields Hospital,* 0844 8118110,"Pinderfields Hospital, Aberford Road",Wakefield,West Yorkshire,WF1 4DG
Haltwhistle War Memorial Hospital,0344 811 8111,Westgate,Haltwhistle,Northumberland,NE49 9AJ
Romsey Hospital,01794 834700,Winchester Hill,Romsey,Hampshire,SO51 7ZA
Fairfield Hospital,,"Crank Road, Crank",St. Helens,Merseyside,WA11 7RS
Hinchingbrooke Hospital,01480 416 416,Hinchingbrooke Park,Huntingdon,Cambridgeshire,PE29 6NT
Great North Childrens Hospital,0191 233 6161,"Queen Victoria Road, New Victoria Wing, Royal Victoria Infirmary",Newcastle Upon Tyne,,NE1 4LP
Derriford Hospital,* 0845 155 8155,"Derriford Road, Crownhill",Plymouth,Devon,PL6 8DH
West Middlesex University Hospital,020 8550 9108,Twickenham Road,Isleworth,Middlesex,TW7 6AF
Weymouth Community Hospital,01305 760022,Melcombe Avenue,Weymouth,Dorset,DT4 7TB
Lings Bar Hospital,0115 945 5577,"Beckside, Gamston",Nottingham,Nottinghamshire,NG2 6PR
Hillview Lodge,01225 362700,"Royal United Hospital, Combe Park",Bath,,BA1 3NG
bpas (Leamington) ,03457304030,"Blackdown clinic, Old Milverton Road",Leamington Spa,Warwickshire,CV32 6RW
Peninsula NHS Treatment Centre,,"20 Brest Road, Derriford",Plymouth,Devon,PL6 5XP
Centenary House,,70 Charlton Road,Shepton Mallet,Somerset,BA4 5PD
Scarborough Hospital,01723 368111,Woodlands Drive,Scarborough,,YO12 6QL
BMI Chelsfield Park Hospital,01689 877855,Bucks Cross Road,Orpington,Kent,BR6 7RG
Priory Hospital Hayes Grove,020 8462 7722,"Prestons Road, Hayes",Bromley,Kent,BR2 7AS
Yorkshire Eye Hospital,,937 Harrogate Road,Bradford,West Yorkshire,BD10 0RD
Newham Centre for Mental Health,020 7540 4380,"Cherry Tree Way, Glen Road",London,,E13 8SP
Cheshire and Merseyside Treatment Centre,01928 793746,"Cheshire and Merseyside Treatment Centre, Halton General Hospital, Earls Way",Runcorn,Cheshire,WA7 2HH
BMI The Shelburne Hospital,01494 888700,Queen Alexandra Road,High Wycombe,Buckinghamshire,HP11 2TR
Samuel Johnson Community Hospital,01543 412900,"Samuel Johnson Community Hospital, Trent Valley Road",Lichfield,Staffordshire,WS13 6EF
Hemel Hempstead Hospital,01442 213141,Hillfield Road,Hemel Hempstead,Hertfordshire,HP2 4AD
Wythenshawe Hospital,0161 9987070,"Southmoor Road, Wythenshawe",Manchester,,M23 9LT
Medway Maritime Hospital,01634 830 000,Windmill Road,Gillingham,Kent,ME7 5NY
The James Cook University Hospital,01642 850850,Marton Road,Middlesbrough,Cleveland,TS4 3BW
Herts and Essex Community Hospital,01279 444455,Haymeads Lane,Bishop's Stortford,Hertfordshire,CM23 5JH
Urmston Clinic,,"74 Princess Road, Trafford",Manchester,Greater Manchester,M41 5SQ
Sunderland Eye Infirmary,0191 565 6256,Queen Alexandra Road,Sunderland,,SR2 9HP
Springfield University Hospital,0203 513 5000,61 Glenburnie Road,London,,SW17 7DJ
"Nuffield Health, Leicester Hospital",0116 276 9401,Scraptoft Lane,Leicester,Leicestershire,LE5 1HY
Park Hill Hospital,01302 730300 ,Thorne Road,Doncaster,South Yorkshire,DN2 5TH
The Red House,01280850375,"The Red House Nursing Home, Highcross, Syresham",Brackley,Northamptonshire,NN13 5TJ
Spire Regency Hospital,,West Street,Macclesfield,Cheshire,SK11 8DW
Royal Derby Hospital,01332 340131,Royal Derby Hospital,Derby,Derbyshire,DE22 3LZ
The Springs Community,01797363550,"Coast Drive, St Mary's Bay",Romney Marsh,Kent,TN29 0HN
Edgware Community Hospital,,"Edgware Community Hospital, Burnt Oak Broadway",Edgware,Middlesex,HA8 0AD
The Robert Jones and Agnes Hunt Orthopaedic Hospital,01691 404000,,Oswestry,Shropshire,SY10 7AG
Bristol Eye Hospital,0117 923 0060,Lower Maudlin Street,Bristol,Avon,BS1 2LX
Kings Park Hospital,,Gloucester Road,,,BH7 6JF
University Of Bristol Dental Hospital,0117 342 4383,Lower Maudlin Street,Bristol,Avon,BS1 2LY
Prospect Park Hospital,0118 960 5000,"Honey End Lane, Tilehurst",Reading,Berkshire,RG30 4EJ
Spire Little Aston Hospital,0121 353 2444,"Little Aston Hall Drive, Little Aston",Sutton Coldfield,,B74 3UP
BMI The Foscote Hospital,01295 252281,2 Foscote Rise,Banbury,Oxfordshire,OX16 9XP
Southend Hospital,01702 435555,Prittlewell Chase,Westcliff-on-Sea,Essex,SS0 0RY
St Marks Hospital,01628 632012,"St Mark's Road, Maidenhead",Berkshire,Berkshire,SL6 6DU
Clarendon House,02087951141,27 Clarendon Gardens,Wembley,Middlesex,HA9 7QW
Horsham Hospital,01403227000,Hurst Road,Horsham,,RH12 2DR
Northampton General Hospital (Acute),01604 634700,Cliftonville,Northampton,Northamptonshire,NN1 5BD
Bexhill Hospital,01424 755255,Holliers Hill,Bexhill-on-Sea,Sussex,TN40 2DZ
Brentwood Community Hospital,,11 Crescent Drive,Brentwood,Essex,CM15 8DR
John Coupland Hospital,01427 816 500,Ropery Road,Gainsborough,Lincolnshire,DN21 2TJ
"Nuffield Health, Newcastle-upon-Tyne Hospital",0800 015 5020,Clayton Road,Newcastle Upon Tyne,,NE2 1JP
St Mary,01803 312233,"Fore Street, St. Marychurch, Torquay",Devon,,TQ1 4QX
Royal Leamington Spa Rehabilitation Hospital,01926 317700,"Heathcote Lane, Heathcote",Warwick,Warwickshire,CV34 6SR
The Redwoods Centre,01743 210000,Bicton Heath,Shrewsbury,Shropshire,SY3 8DS
Birmingham Treatment Centre,0121 507 6180,Dudley Road,Birmingham,West Midlands,B18 7QH
Barnet Hospital,* 0845 111 4000,Wellhouse Lane,Barnet,Hertfordshire,EN5 3DJ
BMI The London Independent Hospital,020 7780 2400,1 Beaumont Square,London,,E1 4NL
Sussex Eye Hospital,01273 606126,Eastern Road,Brighton,East Sussex,BN2 5BF
North Cambridgeshire Hospital,01945 488088,The Park,Wisbech,Cambridgeshire,PE13 3AB
University College Hospital Macmillan Cancer Centre,020 3456 7016,"University College Hospital (UCH) Macmillan Cancer Centre, Huntley Street",London,,WC1E 6AG
Andover War Memorial Hospital,01264 358 811,Charlton Road,Andover,Hampshire,SP10 3LB
Berwick Infirmary,,Berwick Infirmary,Berwick-Upon-Tweed,Northumberland,TD15 1LT
Spire Southampton Hospital,023 8077 5544,"Chalybeate Hospital, Chalybeate Close",Southampton,Hampshire,SO16 6UY
Lincoln County Hospital,01522 512512,Greetwell Road,Lincoln,Lincolnshire,LN2 5QY
The Great Western Hospital,01793 604020,Marlborough Road,Swindon,Wiltshire,SN3 6BB
St Michael,01249750737,81 Kington St Michael,Chippenham,Wiltshire,SN14 6JB
The Gordon Hospital,020 8746 8733,Bloomburg Street,London,,SW1V 2RH
Conquest Hospital,01424 755255,The Ridge,St. Leonards-on-Sea,East Sussex,TN37 7RD
Yeovil District Hospital,01935 475122,"Yeovil District Hospital, Higher Kingston",Yeovil,Somerset,BA21 4AT
"Victoria Hospital, Deal",01304 865400,"Victoria Hospital, London Road",Deal,Kent,CT14 9UA
Charing Cross Hospital,020 3311 1234,Fulham Palace Road,London,,W6 8RF
Sheppey Community Hospital,,"Plover Road, Minster On Sea",Sheerness,Kent,ME12 3LT
"Nuffield Health, Derby Hospital",0800 015 5020,"Rykneld Road, Littleover",Derby,Derbyshire,DE23 4SN
Bristol Royal Hospital For Children, 0117 342 8460,Upper Maudlin Street,Bristol,Avon,BS2 8BJ
Oswestry Health Centre,01691 663600,"Thomas Savin Road, Off Gobowen Road",Oswestry,Shropshire,SY11 1GA
Blackpool Victoria Hospital,01253 300000,Whinney Heys Road,Blackpool,Lancashire,FY3 8NR
Royal Free Hospital,,"Urgent Care Centre, Royal Free Hospital, Pond Street",London,Greater London,NW3 2QG
St Michael's Hospital,01245 362000,Rayne Road,Braintree,Essex,CM7 2QU
Queen Alexandra Hospital,01903213458,Boundary Road,Worthing,West Sussex,BN11 4LJ
Plym Bridge,,4 William Prance Road,,,PL6 5ZD
Faversham Cottage Hospital,01795 562066,Stone Street,Faversham,Kent,ME13 8PS
Kidderminster Hospital & Treatment Centre,01562 823 424,Bewdley Road,Kidderminster,Worcestershire,DY11 6RJ
Caludon Centre,024 7696 8100,"Clifford Bridge Road,, Walsgrave,",Coventry,West Midlands,CV2 2TE
Moorfields Community Eye Clinic at Loxford ,020 8822 4291,"Loxford Polyclinic, 417 Ilford Lane",Ilford,,IG1 2SN
Broomfield Hospital,01245 362000,Court Road,Chelmsford,Essex,CM1 7ET
Royal Devon and Exeter Hospital (Wonford),,Barrack Road,Exeter,Devon,EX2 5DW
The Bradgate Mental Health Unit,01162252650,"Glenfield Hospital, Groby Road",Leicester,Leicestershire,LE3 9EJ
Green Lane Hospital,01380 731200,Marshall Road,Devizes,Wiltshire,SN10 5DS
Hull Royal Infirmary,01482 875875,Anlaby Road,Hull,,HU3 2JZ
Waters Meeting Health Centre,01204 463000,Waters Meeting Road,Bolton,,BL1 8TT
Blyth Community Hospital,0344 811 8111,Thoroton Street,Blyth,Northumberland,NE24 1DX
BMI The Saxon Clinic,01908 665533,"Chadwick Drive, Eaglestone West",Milton Keynes,Buckinghamshire,MK6 5LR
Leek Moorlands Hospital,0300 123 1894,Ashbourne Road,Leek,Staffordshire,ST13 5BQ
Queen Victoria Hospital,01342 414000,Holtye Road,East Grinstead,West Sussex,RH19 3DZ
BMI The Highfield Hospital,01706 655121,Manchester Road,Rochdale,Lancashire,OL11 4LZ
The Royal London Hospital,020 3456 7890,60 Great Ormond Street,London,,WC1N 3HR
Colchester General Hospital,01206 747474,Turner Road,Colchester,Essex,CO4 5JL
Basingstoke and North Hampshire Hospital,01256 473 202,"Aldermaston Road, Aldermaston Road",Basingstoke,Hampshire,RG24 9NA
Shepton Mallet Community Hospital,,Old Wells Road,Shepton Mallet,Somerset,BA4 4PG
The Horder Centre ,01892 665577,"St. Johns Road, Orthopaedic Centre of Excellence",Crowborough,East Sussex,TN6 1XP
Withernsea Hospital,01964 614666,Queen Street,Withernsea,North Humberside,HU19 2QB
Spire Tunbridge Wells Hospital,01892 740 047,"Fordcombe Road, Fordcombe",Tunbridge Wells,Kent,TN3 0RD
Royal Blackburn Hospital,01254 263555,"Haslingden Road, Haslingden Road",Blackburn,Lancashire,BB2 3HH
Marie Stopes International Essex Centre,* 0845 300 3740,88 Russell Road,Buckhurst Hill,Essex,IG9 5QB
Buckland Hospital,01304 222510,"Buckland Hospital, Coombe Valley Road",Dover,Kent,CT17 0HD
Wareham Community Hospital,01929 552433,Streche Road,Wareham,Dorset,BH20 4QQ
Yate West Gate Centre,,"21 West Walk, Yate",Bristol,Avon,BS37 4AX
Hospital For Tropical Diseases,020 3456 7891,"Mortimer Market Centre, Mortimer Market, Off Capper Street",London,,WC1E 6JD
Tower House Medical Centre,,"Stock Way South, Nailsea",Bristol,Avon,BS48 2XX
Salford Royal,0161 789 7373,"Salford Royal NHS Foundation Trust, Stott Lane",Salford,,M6 8HD
Witney Community Hospital,01993 209400,Welch Way,Witney,Oxfordshire,OX28 6JJ
Corbett Hospital,01384 456111,Vicarage Road,Stourbridge,West Midlands,DY8 4JB
St Hugh,0114 263 0330,"Claremont Private Hospital, 401 Sandygate Road",Sheffield,South Yorkshire,S10 5UB
St Albans City Hospital,01727 866122,Waverley Road,St. Albans,Hertfordshire,AL3 5PN
Litherland Town Hall Health Centre,0151 475 4840,"Hatton Hill Road, Litherland, Liverpool",,,L21 9JN
Georges Turle House,,54 London Road,,Canterbury,CT2 8JY
Spire Cheshire Hospital,* 0845 602 2500,"Fir Tree Close, Stretton",Warrington,Cheshire,WA4 4LU
James Paget University Hospital,01493 452452,"Lowestoft Road, Gorleston",Great Yarmouth,Norfolk,NR31 6LA
St Thomas',020 7188 7188,"Trust Offices, Guy's Hospital, Great Maze Pond",London,Greater London,SE1 9RT
Birmingham Midland Eye Centre (Bmec),01215543801,"City Hospital N H S Trust, Dudley Road",Birmingham,West Midlands,B18 7QH
Bradford Royal Infirmary,,Smith Lane,Bradford,West Yorkshire,BD9 6RJ
Spire Methley Park Hospital,01977 518518,"Methley Lane, Methley",Leeds,West Yorkshire,LS26 9HG
Gun Lane Surgery,,"Gun Lane, Strood",,Rochester,ME2 4UW
Sheldon Unit,0121 466 6950,"Sheldon Unit, Sheldon Drive, off Tessall Lane",Birmingham,,B31 5EJ
County Hospital Louth,01507 600100,High Holme Road,Louth,Lincolnshire,LN11 0EU
Bensham Hospital,0191 482 0000,Saltwell Road,Gateshead,Tyne and Wear,NE8 4YL
Ashworth Hospital,0151-473-0303,"Parkbourn, Maghull",Liverpool,Merseyside,L31 1HW
Hellesdon Hospital,01603 421421,Drayton High Road,Norwich,Norfolk,NR6 5BE
Central Hull Cmht,,7 Baker Street,,Hull,HU2 8HP
Barberry ,0121 301 2002,25 Vincent Drive,Birmingham,,B15 2FG
Royal Orthopaedic Hospital,0121 685 4000,"The Woodlands, Bristol Road South, Northfield",Birmingham,West Midlands,B31 2AP
Altrincham General Hospital,,Market Street,,,WA14 1PE
Little Brook Hospital,01322 622222,"Bow Arrow Lane, Stone",Dartford,Kent,DA2 6PB
Benenden Hospital,,"Goddards Green Road, Benenden",Cranbrook,Kent,TN17 4AX
Crawley Hospital,,West Green Drive,Crawley,West Sussex,RH11 7DH
Clatterbridge Hospital,0151 334 4000,"Clatterbridge Road, Bebington",Wirral,Merseyside,CH63 4JY
"Nuffield Health, The Grosvenor Hospital, Chester",01244 684305,"Nuffield Health, The Grosvenor Hospital, Wrexham Road",Chester,Cheshire,CH4 7QP
Furness General Hospital,01229 870870,Dalton Lane,Barrow-In-Furness,Cumbria,LA14 4LF
Ashley House Hospital ,01630 673800,Ashley,Market Drayton,Staffordshire,TF9 4LX
Greater Manchester NHS CATS - Salford,0333 200 4042,111 Piccadilly,Manchester,,M1 2HY
Newholme Hospital,,Baslow Road,,,DE45 1AD
Ellen Badger Hospital,01608 661410,Stratford Road,Shipston-on-Stour,Warwickshire,CV36 4AX
Cavendish Hospital,,Manchester Road,,,SK17 6TE
"Nuffield Health, Exeter Hospital",0800 015 5020,Wonford Road,Exeter,Devon,EX2 4UG
Darent Valley Hospital,01322 428100,Darenth Wood Road,Dartford,Kent,DA2 8DA
Alderney Hospital,01202 735537,"Ringwood Road, Parkstone",Poole,Dorset,BH12 4NB
Renacres Hospital,01704 841133,"Renacres Lane, Halsall",Ormskirk,Lancashire,L39 8SE
Fareham Community Hospital,01489 587400,"Brook Lane, Sarisbury Green, Sarisbury",Fareham,Hampshire,SO31 7DQ
Chelsea and Westminster Hospital,020 3315 8000,369 Fulham Road,London,,SW10 9NH
Alder Hey Children's NHS Foundation Trust,0151 228 4811,"Alder Hey Hospital, Eaton Road, West Derby",Liverpool,Merseyside,L12 2AP
Elmleigh,01943607003,42 Kings Road,Ilkley,West Yorkshire,LS29 9AT
Maidstone Hospital,01622 729000,Hermitage Lane,Maidstone,Kent,ME16 9QQ
Bethlem Royal Hospital,020 3228 6000,"Monks Orchard Road, Monks Orchard Road","Beckenham, Greater London",,BR3 3BX
Manchester Royal Eye Hospital,0161 276 1234,"Trust Headquarters, Cobbett House, Manchester Royal Infirmary, Oxford Road",Manchester,,M13 9WL
Whipps Cross University Hospital,020 3416 5000,Whipps Cross Road,London,,E11 1NR
Maister Lodge,01482 303775,Hauxwell Road,Hull,,HU8 0RB
New Cross Hospital,01902 307999,"Wednesfield  Road, Heath Town",Wolverhampton,West Midlands,WV10 0QP
Chesterfield Royal Hospital,01246 277271,"Top Road, Calow",Chesterfield,Derbyshire,S44 5BL
Rowley Regis Hospital,0121 507 6300,Moor Lane,Rowley Regis,West Midlands,B65 8DA
Spire Murrayfield Hospital,0151 929 5181,"Holmwood Drive, Heswall",Wirral,Merseyside,CH61 1AU
Fieldhead,01924 459000,"Rectory Park, Church Lane, Thornhill",Dewsbury,West Yorkshire,WF12 0JZ
University Hospital (Coventry),024 76964000,Clifford Bridge Road,Coventry,Warwickshire,CV2 2DX
Tetbury Hospital,,"Tetbury Hospital, Malmesbury Road",Tetbury,Gloucestershire,GL8 8XB
Chalkhill,020 8736 7033,"113 Chalkhill Road, Wembley",Middlesex,,HA9 9FX
"West Park Hospital, Darlington",01325 552000,Edward Pease Way,Darlington,Durham,DL2 2TS
St Leonards Community Hospital,01202 584200,Ringwood Road,Ringwood,Dorset,BH24 2RR
Moorfields Eye Hospital (City Road),020 7253 3411,162 City Road,London,Greater London,EC1V 2PD
St Lukes Hospital,01274 542200,"Bradford Royal Infirmary, Duckworth Lane",Bradford,West Yorkshire,BD9 6RJ
New Forest Birth Centre,023 8074 7690,"Ashurst Hospital, Lyndhurst Road, Ashurst",Southampton,Hampshire,SO40 7AR
St Mark's Hospital,020 8235 4000,Watford Road,Harrow,Middlesex,HA1 3UJ
Pebble Lodge,01202 545400,"49 Alumhurst Road, Westbourne",Bournemouth,Dorset,BH4 8EW
Fleetwood Health And Wellbeing Centre,,Dock Street,Fleetwood,Lancashire,FY7 6HP
Kettering General Hospital,01536 492000,"Kettering General Hospital, Rothwell Road",Kettering,Northamptonshire,NN16 8UZ
One Health Group Clinic - Chesterfield,0114 250 5510,"Chesterfield Royal Hospital, Chatsworth Suite",Chesterfield,Derbyshire,S44 5BL
Rowley Hall Hospital,01785 238600,Rowley Avenue,Stafford,Staffordshire,ST17 9AQ
Priory Hospital Chelmsford,01245 345 345,"Stump Lane, Springfield Green",Chelmsford,Essex,CM1 7SJ
BMI Fawkham Manor Hospital,01474 879900,"Manor Lane, Fawkham",Longfield,Kent,DA3 8ND
The Royal Marsden Hospital (Surrey),020 8642 6011,Downs Road,Sutton,Surrey,SM2 5PT
Wollaton Park Medical Centre (Healthharmonie),,12 Harrow Road,Nottingham,Nottinghamshire,NG8 1FG
Southampton NHS Treatment Centre,0333 200 1820,"c/o Care UK - Level C, Royal South Hants Hospital, Brintons Terrace",Southampton,Hampshire,SO14 0YG
Mile End Hospital,020 3416 5000,Bancroft Road,London,,E1 4DG
BMI Fitzroy Square Hospital,020 7388 4954,14 Fitzroy Square,London,,W1T 6AH
BMI The Garden Hospital,020 8457 4500,"BMI Hendon Hospital, 46-50 Sunny Gardens Road",London,,NW4 1RP
Poole Hospital,01202 665511,Longfleet Road,Poole,Dorset,BH15 2JB
Julian Hospital,01603 421800,Bowthorpe Road,Norwich,Norfolk,NR2 3TD
Hillside Centre,01432 371800,"Hillside Centre, Wye Valley NHS Trust, Pentwyn Avenue",Hereford,Herefordshire,HR2 7LB
Hertford County Hospital,01707 328111,North Road,Hertford,Hertfordshire,SG14 1LP
Spire Clare Park Hospital,01252 895421,Crondall Lane,Farnham,Surrey,GU10 5XX
Wallingford Community Hospital,01491 826037(Maternity) 01491 208500(switchboard),"Reading Road, Reading Road",Wallingford,Oxfordshire,OX10 9DU
Queen Charlotte's Hospital,020 3313 1111,Du Cane Road,London,Greater London,W12 0HS
Peace Children's Centre,01923470610,Peace Prospect,Watford,,WD17 3EW
Rochdale Infirmary,01706 377777,Whitehall Street,Rochdale,Lancashire,OL12 0NB
Epsom Hospital,01372 735 735,Dorking Road,Epsom,Surrey,KT18 7EG
St James' Hospital,,Locksway Road,Southsea,Hampshire,PO4 8LD
bpas (Streatham),03457304030,"Leigham Lodge/Leigham Clinic, 76 Leigham Court Road",London,,SW16 2QA
Northwick Park Hospital,020 8864 3232,Watford Road,Harrow,Middlesex,HA1 3UJ
Claybrook Centre,,Claybrook Road,,,W6 8LN
Manor Hospital,01474 879900,"Manor Lane, Fawkham",Longfield,Kent,DA3 8ND
South Bristol Community Hospital,0117 923 0000,"South Bristol NHS Community Hospital, Hengrove Promenade",Bristol,,BS14 0JZ
Leeds Dental Hospital,0113 2440111,Clarendon Way,Leeds,West Yorkshire,LS2 9LU
Manchester Royal Infirmary,0161 276 1234,Oxford Road,Manchester,,M13 9WL
Westbourne Green Community Hospital,,26 Heaton Road,Bradford,West Yorkshire,BD8 8RA
Blackrod Health Centre,01204 462828,"5 Church Street, Blackrod",Bolton,,BL6 5EQ
Liverpool Women's NHS Foundation Trust,0151 708 9988,"Crown Street, ., .",Liverpool,,L8 7SS
Edgware Hospital,020 89522381,Burnt Oak Broadway,Edgware,Middlesex,HA8 0AD
The Yorkshire Clinic,01274 550600,Bradford Road,Bingley,West Yorkshire,BD16 1TW
Surrey Lodge Group Practice,,11 Anson Road,,Manchester,M14 5BY
Halton General Hospital,01928 793746,"Cheshire and Merseyside Treatment Centre, Halton General Hospital, Earls Way",Runcorn,Cheshire,WA7 2HH
"Nuffield Health, Tees Hospital",0800 015 5020,"Nuffield Health Tees Hospital, Junction Road, Norton",Stockton-on-Tees,Cleveland,TS20 1PX
Royal Manchester Children's Hospital,0161 276 1234,Oxford Road,Manchester,,M13 9WL
Lynfield Mount Hospital,01274 494194,Heights Lane,Bradford,West Yorkshire,BD9 6DP
Claremont Private Hospital,0114 263 0330,"401 Sandygate Road, Sheffield",Sheffield,South Yorkshire,S10 5UB
Hastings Walk In Centre,01424 884410,"Station Plaza Health Centre, Station Approach",Hastings,East Sussex,TN34 1BA
Falmouth Hospital,,Trescobeas Road,Falmouth,Cornwall,TR11 2JA
Spire Liverpool Hospital,0151 733 7123,"Spire Liverpool Hospital, 57 Greenbank Road",Liverpool,,L18 1HQ
Castleford and Normanton District Hospital,01977 605500,Lumley Street,Castleford,West Yorkshire,WF10 5LT
Addenbrooke's,01223 245151,Hills Road,Cambridge,Cambridgeshire,CB2 0QQ
BMI The Sloane Hospital,020 8466 4002,Albemarle Road,Beckenham,Kent,BR3 5HS
Spire Portsmouth Hospital,02392 456 172,Bartons Road,Havant,Hampshire,PO9 5NP
Wharfedale Hospital,(01943) 465522,Newall Carr Road,Otley,West Yorkshire,LS21 2LY
Hillingdon Hospital,01895 238282,Pield Heath Road,Uxbridge,Middlesex,UB8 3NN
Minehead Community Hospital,01643 701701,Luttrell Way,Minehead,Somerset,TA24 6DF
Upton Hospital,,Albert Street,Slough,Berkshire,SL1 2BJ
bpas (Liverpool),03457304030,"Merseyside Clinic, 32 Parkfield Road, Aigburth",Liverpool,,L17 8UJ
Sheffield City Walk-In Centre,,"Sheffield City Gp Health Centre, Rockingham House, 75 Broad Lane",Sheffield,South Yorkshire,S1 3PB
Spire South Bank Hospital,01905 350 003,139 Bath Road,Worcester,Worcestershire,WR5 3YB
Spire St Saviours Hospital,01303 265581,71-73 Seabrook Road,Hythe,Kent,CT21 5BU
Royal Bournemouth General Hospital,01202 303626,Castle Lane East,Bournemouth,Dorset,BH7 7DW
Clevedon Community Hospital,01275 546852,Old Street,Clevedon,,BS21 6BS
Arundel & District Hospital,01903 882543,"Arundel & District Hospital, Chichester Road, Arundel",Arundel,Sussex,BN18 0AB
BMI St Edmunds Hospital,01284 701 371,St. Marys Square,Bury St. Edmunds,Suffolk,IP33 2AA
Fountain Way,01722 820100,Wilton Road,Salisbury,Wiltshire,SP2 7FD
BMI Woodlands Hospital,01325 341700,Morton Park Way,Darlington,,DL1 4PL
Thanet Multi Agency Service,,"Mortimer House, 24 Hartsdown Road",,Margate,CT9 5QP
The Bennion Centre (Elderly),0116 225 2750,"Glenfield Hospital, Groby Road",Leicester,Leicestershire,LE3 9DZ
Doncaster Royal Infirmary,01302 366666,Thorne Road,Doncaster,Yorkshire,DN2 5LT
Watford General Hospital,01923 244366,Vicarage Road,Watford,Hertfordshire,WD18 0HB
Carlton Court,02084474790,112 Bells Hill,Barnet,Hertfordshire,EN5 2SQ
Goole and District Hospital,01405 720720,Woodland Avenue,Goole,North Humberside,DN14 6RX
West Midlands Hospital, 01384 560123 ,Colman Hill,Halesowen,West Midlands,B63 2AH
University Hospital Of North Staffordshire,01782 715 444,"City General, Newcastle Road",Stoke-on-Trent,Staffordshire,ST4 6QG
Yeatman Hospital,01935 813991,Hospital Lane,Sherborne,Dorset,DT9 3JU
Parkside Hospital,020 8971 8000,"53 Parkside, Wimbledon",London,,SW19 5NX
"Queen's Hospital, Burton Upon Trent",01283 566333,Belvedere Road,Burton -on- Trent,Staffordshire,DE13 0RB
Orsett Hospital,* 0845 155 3111,"Rowley Road, Orsett",Grays,Essex,RM16 3EU
Chesterton Medical Centre,01223 883740,"Chesterton Medical Centre, 35 Union Lane",Cambridge,Cambridgeshire,CB4 1PX
Bridport Community Hospital,01308 422371,"Hospital Lane, North Allington",Bridport,Dorset,DT6 5DR
BMI Goring Hall Hospital,01903 506699,"Bodiam Avenue, Goring-By-Sea",Worthing,West Sussex,BN12 5AT
Cygnet Hospital Ealing,020 8991 6699,22 Corfton Road,Ealing,,W5 2HT
The Huntingdon NHS Treatment Centre,01480 416416,"Hinchingbrooke Healthcare NHS Trust, Hinchingbrooke Park",Huntingdon,Cambridgeshire,PE29 6NT
Newbury Park Health Centre,,40 Perrymans Farm Road,Ilford,Essex,IG2 7LE
Royal National Orthopaedic Hospital (Bolsover Street),020 8954 2300,45-51 Bolsover Street,London,Greater London,W1W 5AQ
Calderdale Royal Hospital,01422 357171,Salterhebble,Halifax,West Yorkshire,HX3 0PW
Queen Victoria Hospital (East Grinstead),01342 414000,Holtye Road,East Grinstead,West Sussex,RH19 3DZ
Luton and Dunstable Hospital,01582 491166,Lewsey Road,Luton,Bedfordshire,LU4 0DZ
St Martin's Hospital,01227 459371,Littlebourne Road,Canterbury,Kent,CT1 1TD
Clacton Hospital,01255 201717,Tower Road,Clacton,Essex,CO15 1LH
Lenworth Clinic,,"329 Hythe Road, Willesborough",,Ashford,TN24 0QE
The Whittington Hospital At Hornsey Central,,151 Park Road,London,Greater London,N8 8JD
Glenfield Hospital,0300 303 1573,Groby Road,Leicester,Leicestershire,LE3 9QP
Abingdon Community Hospital,01235 205700,Marcham Road,Abingdon,Oxfordshire,OX14 1AG
Uckfield Community Hospital,01825 769999,"Uckfield Community Hospital, Fransfield Road",Uckfield,Sussex,TN22 5AW
Bolton Diabetes Centre,01204 462400,Chorley Street,Bolton,,BL1 4AL
Soho NHS Walk-in Centre,02075346500,"1 Frith Street, W1D 3HZ",London,,W1D 3HZ
Lister Health Centre,020 3049 8310,"101 Peckham Road, Peckham",London,,SE15 5LJ
Haywood Hospital,,"High Lane, Burslem",Stoke-On-Trent,Staffordshire,ST6 7AG
Warminster Community Hospital,01985 212076,The Avenue,Warminster,Wiltshire,BA12 8QS
Royal Cornwall Hospital (Treliske),01872 250000,Treliske,Truro,Cornwall,TR1 3LQ
Savernake Hospital,01672 517200,General Hospital,Marlborough,Wiltshire,SN8 3HL
"Nuffield Health, Cambridge Hospital",01223 303 336,"Nuffield Health Cambridge Hospital, 4 Trumpington Road",Cambridge,Cambridgeshire,CB2 8AF
Mill View Hospital,01273 621984,Nevill Avenue,Hove,,BN3 7HY
Frimley Park Hospital,020 8550 9108,"Frimley Park Hospital, Portsmouth Road, Frimley",Camberley,Surrey,GU16 7UJ
Bradwell Hospital,0300 123 0905,"Talke Road, Chesterton",Newcastle,Staffordshire,ST5 7NJ
Colman Hospital,01603 255720,Unthank Road,Norwich,,NR2 2PJ
Wexham Park Hospital,01753 633 000,"Wexham Park Hospital, Wexham Street, Wexham",Slough,Berkshire,SL2 4HL
Bunny Hill Primary Care Centre,0191 5195800,"Bunny Hill Primary Care Centre, Hylton Lane",Sunderland,Tyne and Wear,SR5 4BW
Gravesham Community Hospital,01474 360500,"Gravesham Community Hospital, Bath Street",Gravesend,Kent,DA11 0DG
Minster Surgery,,"75 High Street, Minster",Ramsgate,Kent,CT12 4AB
Castle Hill Hospital,01482 875875,Castle Road,Cottingham,,HU16 5JQ
Fenwick Hospital,,Pikes Hill,Lyndhurst,Hampshire,SO43 7NG
Ida Darwin,,"Cambridge Road, Fulbourn",Cambridge,Cambridgeshire,CB21 5EE
Nuffield Diagnostic Centre,Appointments 01536 493300,Cottingham Rd,Corby,Northamptonshire,NN17 2UW
The Christie,,"The Christie Nhs Foundation Trust, The Palatine Centre, 63-65 Palatine Road",Manchester,Greater Manchester,M20 3LJ
The Eastman Dental Hospital,020 3456 7899,256 Gray's Inn Road,London,,WC1X 8LD
BMI The Kings Oak Hospital,020 8370 9500,The Ridgeway,Enfield,Middlesex,EN2 8SD
St Georges Hospital (Morpeth),0191 213 0151,St Georges Hospital,Morpeth,Northumberland,NE61 2NU
Tonbridge Cottage Hospital,01732 353653,Vauxhall Lane,Tonbridge,Kent,TN11 0NE
"Nuffield Health, York Hospital",0800 015 5020,Haxby Road,York,North Yorkshire,YO31 8TA
Burrswood Hospital,01892 863637,"Burrswood, Groombridge",Tunbridge Wells,Kent,TN3 9PY
Stafford Hospital,01785 257 731,Weston Road,Stafford,Staffordshire,ST16 3SA
Sir G B Hunter Memorial Hospital,0191 220 5953,The Green,Wallsend,Tyne and Wear,NE28 7PB
North Tyneside General Hospital,0344 811 8111,Rake Lane,North Shields,,NE29 8NH
Heavitree Hospital,01392 411 611,Gladstone Road,Exeter,Devon,EX1 2ED
Queen Elizabeth Hospital,0121 627 2000,"Mindelsohn Way, Edgbaston",Birmingham,,B15 2WB
Blandford Community Hospital,01258 456541,Milldown Road,Blandford Forum,Dorset,DT11 7DD
Cobham Community Hospital,01932 588 400,168 Portsmouth Road,Cobham,Surrey,KT11 1HT
The Liverpool Centre Clinic,,"Ropewalks Group Practice, 28 Argyle Street",,Liverpool,L1 5DL
Thornhills Medical Practice,01732 525935,"Larkfield Health Centre, Martin Square",Larkfield,Kent,ME20 6QJ
Royal Hospital For Neuro-Disability,020 8780 4500,West Hill,London,Greater London,SW15 3SW
Birmingham Chest Clinic,,"151 Great Charles Street, Queensway",,Birmingham,B3 3HX
Stratton Hospital,,"Hospital Road, Stratton",Bude,Cornwall,EX23 9BR
Nottingham University Hospitals NHS Trust - Queen's Medical Centre Campus,0115 924 9924,Derby Road,Nottingham,Nottinghamshire,NG7 2UH
Whitstable and Tankerton Hospital,01227 594601,"Whitstable and Tankerton Hospital, Northwood Road, Tankerton",Whitstable,Kent,CT5 2HN
The Ladywell Unit,020 32280200,"University Hospital Lewisham, Lewisham High Street",London,,SE13 6LH
"Fryatt Hospital, Harwich",01255 201201,419 Main Road,Harwich,Essex,CO12 4EX
Danetre Hospital,01327 708800,London Road,Daventry,Northamptonshire,NN11 4DY
Goodmayes Hospital,020 8215 9200,"Barley Lane, Goodmayes",Ilford,Essex,IG3 8XJ
bpas (Milton Keynes),03457304030,"355 Acorn House, Midsummer Boulevard",Milton Keynes,Buckinghamshire,MK9 3HP
Boston West Hospital,01205 591860,"Boston West Business Park, Sleaford Road",Boston,Lincolnshire,PE21 8EG
Hundens Lane Day Hospital - Darlington,,Hundens Lane,Darlington,County Durham,DL1 1JE
Fairfield General Hospital,0161 764 6081,"Fairfield General Hospital, Rochdale Old Road",Bury,Lancashire,BL9 7TD
Ashburton and Buckfastleigh Community Hospital,01364 652203,9-15 Eastern Road,Ashburton,Devon,TQ13 7AP
Seacroft Hospital,(0113) 2648164,York Road,Leeds,West Yorkshire,LS14 6UH
"Nuffield Health, Plymouth Hospital",0800 015 5020,Derriford Road,Plymouth,Devon,PL6 8BG
Aintree University Hospital,0151 525 5980,"Aintree University Hospital, Lower Lane",Liverpool,Merseyside,L9 7AL
Heartlands Hospital,,"Birmingham Heartlands Hospital, Bordesley Green",Birmingham,West Midlands,B9 5SS
Petersfield Community Hospital,01730 263221,Swan Street,Petersfield,Hampshire,GU32 3LB
Worle Health Centre,,"125 High Street, Worle",Weston-Super-Mare,Avon,BS22 6HB
Winscombe Surgery,,Hillyfields Way,,Winscombe,BS25 1AF
Warwick Hospital,01926 495321,"Warwick Hospital, Lakin Road",Warwick,Warwickshire,CV34 5BW
Victoria Hospital,,Hayward Road,,,BB5 6AS
Royal United Hospital,01225 428331,"Royal United Hospital Bath NHS Trust, Combe Park",Bath,,BA1 3NG
Churchill Hospital,020 8872 3872,Sudbury Hill,Harrow,Middlesex,HA1 3RX
Air Balloon Surgery,0117 9099912,"Air Balloon Surgery, Kenn Road, St George",Bristol,,BS5 7PD
St Helier Hospital,,"St Helier Hospital, Wrythe Lane",Carshalton,Surrey,SM5 1AA
The London Chest Hospital,020 3416 5000,Bonner Road,London,,E2 9JX
Harrogate District Hospital,01423 885959,Lancaster Park Road,Harrogate,North Yorkshire,HG2 7SX
Congleton War Memorial Hospital,01260 294800,"Congleton War Memorial Hospital, Canal Road",Congleton,Cheshire,CW12 3AR
Peter Hodgkinson Centre,01522 573553,"Peter Hodgkinson Centre, Lincoln County Hospital, Greetwell Road",Lincoln,Lincolnshire,LN2 5QY
St Andrew's Healthcare - Northampton,01604 616000,"St. Andrews Hospital, Billing Road",Northampton,Northamptonshire,NN1 5DG
Tameside General Hospital,,Fountain Street,Ashton-Under-Lyne,Lancashire,OL6 9RW
bpas (Birmingham Central),03457304030,"Room 3/4, Guildhall Buildings, Navigation Street",Birmingham,West Midlands,B2 4BT
Southmead Hospital,0117 9505050,"Southmead Hospital, Southmead Road",Bristol,,BS10 5NB
BMI The Hampshire Clinic,01256 357111,"Basing Road, Old Basing",Basingstoke,Hampshire,RG24 7AL
Weller Wing,,Kempston Road,,,MK42 9DJ
West Park Hospital,01325 552000,Edward Pease Way,Darlington,Durham,DL2 2TS
Kingsbridge (South Hams) Community Hospital,01548 852349,Plymouth Road,Kingsbridge,Devon,TQ7 1XT
Bewley House,01249 767800,Marshfield Road,Chippenham,Wiltshire,SN15 1JW
The Huntercombe Hospital - Stafford,01785 840000,"Ivetsey Bank, Wheaton Aston",Stafford,Staffordshire,ST19 9QT
Hurstwood Park Neurosciences Centre,,Lewes Road,,Haywards Heath,RH16 4EX
Lymington New Forest Hospital,01590 663000,Wellworthy Road,Lymington,Hampshire,SO41 8QD
Pinehill Hospital,,Benslow Lane,Hitchin,Hertfordshire,SG4 9QZ
The Huntercombe Hospital - Maidenhead,,"Huntercombe Lane South, Taplow",Maidenhead,Berkshire,SL6 0PQ
Barnsley Hospital,01226 730000,Gawber Road,Barnsley,,S75 2EP
Clifton Park Hospital,01904 464550,"Bluebeck Drive, Shipton Road",York,North Yorkshire,YO30 5RA
Okehampton Hospital,01837 658 000,Cavell Way,Okehampton,Devon,EX20 1PN
Longton Hospital,,Upper Belgrave Road,Stoke-On-Trent,Staffordshire,ST3 4QX
BMI The Harbour Hospital,01202 244200,St Mary's Road,Poole,Dorset,BH15 2BH
Greater Manchester NHS CATS - Denton,0333 200 4042,111 Piccadilly,Manchester,,M1 2HY
Will Adams NHS Treatment Centre,0333 200 1730,"c/o Care UK, Godden Way, Beechings Way Industrial Centre",Gillingham,Kent,ME8 6AD
The Princess Royal Hospital,01952 641222,"Apley Castle, Grainger Drive",Telford,Shropshire,TF1 6TF
Spire Dunedin Hospital, 0118 955 3410,16 Bath Road,Reading,Berkshire,RG1 6NS
Royal Bolton Hospital,01204 390390,"Minerva Road, Farnworth",Bolton,Lancashire,BL4 0JR
Guy's Hospital,0207 1887188,Great Maze Pond,London,,SE1 9RT
Tenbury Community Hospital,,"Worcester Road, Burford",Tenbury Wells,Worcestershire,WR15 8AP
Queen Elizabeth I I Hospital,01707 328111,"Howlands, Howlands",Welwyn Garden City,Hertfordshire,AL7 4HQ
St Pancras Hospital,020 3317 3500,"Inpatient Unit, South Wing, 4 St. Pancras Way",London,,NW1 0PE
King's Mill Hospital,01623 622515,Mansfield Road,Sutton-In-Ashfield,Nottinghamshire,NG17 4JL
Sutton Hospital,020 8296 2000,Cotswold Road,Sutton,Surrey,SM2 5NF
Duchy Hospital,01423 567 136,Queens Road,Harrogate,North Yorkshire,HG2 0HF
Queen Elizabeth The Queen Mother Hospital,01843 225544,"Queen Elizabeth The Queen Mother Hospital, St Peters Road",Margate,Kent,CT9 4AN
Frenchay Hospital,0117 970 1212,Frenchay Park Road,Bristol,,BS16 1LE
Trafford General Hospital,0161 748 4022,"Moorside Road, Davyhulme",Manchester,,M41 5SL
Dilke Memorial Hospital,0300 421 8640,Speech House Road,Cinderford,,GL14 3HX
Small Heath Health Centre,0121 301 7200,"42 Chapman Road, Small Heath",Birmingham,West Midlands,B10 0PG
Longridge Community Hospital,,"St. Wilfrids Terrace, Longridge",Preston,Lancashire,PR3 3WQ
Elective Orthopaedic Centre,01372 735 800,"Dorking Road, Dorking Road",Epsom,Surrey,KT18 7EG
Craig Croft Clinic,,Craig Croft,Birmingham,West Midlands,B37 7TR
The New Selby War Memorial Hospital,01904 724300,Doncaster Road,Selby,North Yorkshire,YO8 9BX
Axminster Community Hospital,01297 630 400,Chard Road,Axminster,Devon,EX13 5DU
University College Hospital,,"Urgent Care Centre, University College Hospital, 235 Euston Road",London,Greater London,NW1 2BU
Oxted Therapy Unit,01883 733890,Barnetts Way,Oxted,Surrey,RH8 0NQ
Radbourne Unit,01332 623700,"Radbourne Unit, Royal Derby Hospital, Uttoxeter Road",Derby,Derbyshire,DE22 3WQ
Amersham Hospital,01494 526 161,"Amersham Hospital, Whielden Street",Amersham,Buckinghamshire,HP7 0JD
Southport and Formby District General Hospital,01704 547471,Town Lane,Southport,Merseyside,PR8 6PN
Evesham Community Hospital,01386 502449,"Evesham Community Hospital, Waterside",Evesham,Worcestershire,WR11 1JT
Long Eaton Health Centre,,"Long Eaton Health Centre, Midland Street, Long Eaton","Nottingham, Derbyshire",,NG10 1RY
Central Middlesex Hospital,020 8965 5733,Acton Lane,London,Greater London,NW10 7NS
Shepton Mallet NHS Treatment Centre,01749 333600,"Shepton Mallet Treatment Centre, Old Wells Road",Shepton Mallet,Somerset,BA4 4LP
George Bryan Centre,01827 285598,"Plantation Lane, Mile Oak",Tamworth,Staffordshire,B78 3NG
The Royal Victoria Infirmary,0191 233 6161,"Queen Victoria Road, New Victoria Wing, Royal Victoria Infirmary",Newcastle Upon Tyne,,NE1 4LP
Spire Sussex Hospital,* 0845 604 7400,The Ridge,St. Leonards-on-Sea,,TN37 7PT
Priory Hospital North London,020 8882 8191,"Grovelands House, The Bourne, Southgate",London,,N14 6RA
Bridgewater Hospital,,120 Princess Road,Manchester,Greater Manchester,M15 5AT
Westmorland General Hospital,01539 732288,Burton Rd,Kendal,,LA9 7RG
Rivers Hospital,01279 600282,High Wych Road,Sawbridgeworth,Hertfordshire,CM21 0HH
Ealing Hospital,020 8967 5000,Uxbridge Road,Southall,Middlesex,UB1 3HW
The Clatterbridge Cancer Centre NHS Foundation Trust,0151 334 1155,"Clatterbridge Road, Bebington",Wirral,,CH63 4JY
Oleaster,0121 301 2200,"6 Mindelsohn Crescent, Edgbaston",Birmingham,West Midlands,B15 2SY
City & Hackney Teaching Pct Walk In Centre,01273 734545,"Behrooz Sahami City Dental Practice, 49 Blatchington Road",Hove,,BN3 3YJ
Crowborough War Memorial Hospital,,Southview Road,Crowborough,East Sussex,TN6 1HG
Sir Robert Peel Hospital,01827 263 800,"Plantation Lane, Mile Oak",Tamworth,Staffordshire,B78 3NG
All Hallows Hospital,01986 892728,"Station Road, Ditchingham",Bungay,Suffolk,NR35 2QL
BMI Bishops Wood Hospital,01923 835814,Rickmansworth Road,Northwood,Middlesex,HA6 2JW
Leigh Infirmary,01942 244000,The Avenue,Leigh,Lancashire,WN7 1HS
BMI The Blackheath Hospital,020 8318 7722,40 - 42 Lee Terrace,London,,SE3 9UD
North Walsham Hospital,,"North Walsham Cottage Hospital, Yarmouth Road",North Walsham,Norfolk,NR28 9AP
Edenbridge War Memorial Hospital,01732 863164,"Edenbridge and District War Memorial Hospital, Mill Hill",Edenbridge,Kent,TN8 5DA
BMI The Lancaster Hospital,01524 62345,Meadowside,Lancaster,Lancashire,LA1 3RH
Worcestershire Royal Hospital,01905 763 333,Charles Hastings Way,Worcester,Worcestershire,WR5 1DD
Edward Street Hospital,* 0845 1461800,"Edward Street, Edward Street",West Bromwich,,B70 8NL
Essex County Hospital,01206 747474,Lexden Road,Colchester,Essex,CO3 3NB
Eastbourne District General Hospital,01323 417400,Kings Drive,Eastbourne,East Sussex,BN21 2UD
BMI Gisburne Park Hospital,01200 455 693,"Gisburn Park Estate, Park Road",Clitheroe,Lancashire,BB7 4HX
Mansfield Community Hospital,01623 785050,Stockwell Gate,Mansfield,Nottinghamshire,NG18 5QJ
Nuffield Orthopaedic Centre,01865 741155,"Old Road, Headington",Oxford,Oxfordshire,OX3 7HE
Leeds General Infirmary,0113 243 2799,Great George Street,Leeds,West Yorkshire,LS1 3EX
Portishead Health Centre,,"Victoria Square, Portishead",,Bristol,BS20 6AQ
Victoria Central Hospital,0151 604 7328,"Victoria Central Hospital, Mill Lane, Wallasey",Merseyside,,CH44 5UF
Ross on Wye Community Hospital ,01989 562100,"Ross on Wye Community Hospital, Wye Valley NHS Trust, Alton Street",Ross-on-Wye,Herefordshire,HR9 5AD
University Hospital Of North Durham,,"University Hospital Of Durham, Dryburn Hospital, North Road",Durham,County Durham,DH1 5TW
Shotley Bridge Hospital,0191 333 2333,"Shotley Bridge Hospital, Shotley Bridge",Consett,County Durham,DH8 0NB
Trowbridge Community Hospital,,Adcroft Street,Trowbridge,Wiltshire,BA14 8PH
West Berkshire Community Hospital,01635 273300,"London Road, Benham Hill",Thatcham,Berkshire,RG18 3AS
Charles Clifford Dental Hospital,0114 271 7800,76 Wellesley Road,Sheffield,South Yorkshire,S10 2SZ
Norwich Community Hospital,01603 776776,Bowthorpe Road,Norwich,,NR2 3TU
Holme Valley Memorial Hospital,,Huddersfield Road,Holmfirth,West Yorkshire,HD9 3TS
Ashford & St Peters Hospital,01932 872000,"St Peters Hospital, Guildford Road",Chertsey,Surrey,KT16 0PZ
Warrington Hospital,01925 635911,"Warrington Hospital, Lovely Lane",Warrington,Cheshire,WA5 1QG
Northern General Hospital,0114 243 4343,Herries Road,Sheffield,South Yorkshire,S5 7AU
Heath Lodge Clinic,0121 446 1638,"1357 Warwick Road, Knowle",Solihull,West Midlands,B93 9LW
Hartington Unit,01246 512563,"Hartington Unit, Chesterfield Royal Hospital, Calow",Chesterfield,Derbyshire,S44 5BL
Parkwood Hospital,01253 306980,East Park Drive,Blackpool,Lancashire,FY3 8PW
Spire Washington Hospital,0191 418 8669,Picktree Lane,Washington,Tyne and Wear,NE38 9JZ
bpas (Bournemouth),03457304030,"Dean Park Clinic, 23 Ophir Road",Bournemouth,Dorset,BH8 8LS
Ormskirk and District General Hospital,01695 577111,Wigan Road,Ormskirk,Lancashire,L39 2AZ
BMI The Ridgeway Hospital,01793 814848,"Moormead Road, Wroughton",Swindon,Wiltshire,SN4 9DD
Mount Vernon Hospital,01226 730000,Mount Vernon Road,Barnsley,,S70 4DP
The Whittington Hospital,,151 Park Road,London,Greater London,N8 8JD
Queen Mary's Hospital For Children,020 8296 2000,Wrythe Lane,Carshalton,Surrey,SM5 1AA
Chard & District Hospital,02084452014,"10 Orchard Avenue, Whetstone",London,,N20 0JA
Airedale Centre for Mental Health,,Airedale General Hospital,,,BD20 6PD
Ilkeston Community Hospital,0115 9305522,Heanor Road,Ilkeston,Derbyshire,DE7 8LN
Spire Harpenden Hospital,01582 763191,"Spire Harpenden Hospital, Ambrose Lane",Harpenden,,AL5 4BP
Fitzwilliam Hospital,01733 842333 ,"Milton Way, Bretton",Peterborough,Cambridgeshire,PE3 9AQ
Harplands Hospital,01782 441600,Hilton Road,Stoke-on-Trent,Staffordshire,ST4 6RR
Nene Park Outpatients Clinic,,"Premier Way, Attley Way, Irthlingborough",Wellingborough,Northamptonshire,NN9 5GF
West Heath Hospital,0121 466 6000,"West Heath Hospital, Rednal Road",Birmingham,West Midlands,B38 8HR
West Mendip Community Hospital,,Old Wells Road,,,BA6 8JD
